{"type": "FeatureCollection", "features": [{"type": "Feature", "geometry": {"type": "LineString", "coordinates": [[-77.3, 38.8], [-77.291, 38.79999999999998]]}, "properties": {"edge_id": 0, "edge_ids": [0, 1], "has_speed": false, "speed": null, "speed_unit": "mph", "period": "overall", "length_m": 781.8975674011627, "travel_time_s": null, "name": "Road 0", "highway": "residential", "maxspeed": "30 mph", "oneway": "no"}}, {"type": "Feature", "geometry": {"type": "LineString", "coordinates": [[-77.3, 38.8], [-77.3, 38.808]]}, "properties": {"edge_id": 2, "edge_ids": [2, 3], "has_speed": false, "speed": null, "speed_unit": "mph", "period": "overall", "length_m": 888.1749550632142, "travel_time_s": null, "name": "Road 0", "highway": "residential", "maxspeed": "30 mph", "oneway": "no"}}, {"type": "Feature", "geometry": {"type": "LineString", "coordinates": [[-77.291, 38.79999999999998], [-77.282, 38.79999999999999]]}, "properties": {"edge_id": 4, "edge_ids": [4, 5], "has_speed": false, "speed": null, "speed_unit": "mph", "period": "overall", "length_m": 781.8945727028184, "travel_time_s": null, "name": "Road 0", "highway": "residential", "maxspeed": "30 mph", "oneway": "no"}}, {"type": "Feature", "geometry": {"type": "LineString", "coordinates": [[-77.291, 38.79999999999998], [-77.291, 38.808]]}, "properties": {"edge_id": 6, "edge_ids": [6, 7], "has_speed": false, "speed": null, "speed_unit": "mph", "period": "overall", "length_m": 888.1715470225566, "travel_time_s": null, "name": "Road 0", "highway": "residential", "maxspeed": "30 mph", "oneway": "no"}}, {"type": "Feature", "geometry": {"type": "LineString", "coordinates": [[-77.282, 38.79999999999999], [-77.273, 38.8]]}, "properties": {"edge_id": 8, "edge_ids": [8, 9], "has_speed": false, "speed": null, "speed_unit": "mph", "period": "overall", "length_m": 781.891589778042, "travel_time_s": null, "name": "Road 0", "highway": "residential", "maxspeed": "30 mph", "oneway": "no"}}, {"type": "Feature", "geometry": {"type": "LineString", "coordinates": [[-77.282, 38.79999999999999], [-77.282, 38.80800000000001]]}, "properties": {"edge_id": 10, "edge_ids": [10, 11], "has_speed": false, "speed": null, "speed_unit": "mph", "period": "overall", "length_m": 888.1681523543457, "travel_time_s": null, "name": "Road 0", "highway": "residential", "maxspeed": "30 mph", "oneway": "no"}}, {"type": "Feature", "geometry": {"type": "LineString", "coordinates": [[-77.273, 38.8], [-77.273, 38.80800000000001]]}, "properties": {"edge_id": 12, "edge_ids": [12, 13], "has_speed": false, "speed": null, "speed_unit": "mph", "period": "overall", "length_m": 888.1647710581464, "travel_time_s": null, "name": "Road 0", "highway": "residential", "maxspeed": "30 mph", "oneway": "no"}}, {"type": "Feature", "geometry": {"type": "LineString", "coordinates": [[-77.3, 38.808], [-77.291, 38.808]]}, "properties": {"edge_id": 14, "edge_ids": [14, 15], "has_speed": false, "speed": null, "speed_unit": "mph", "period": "overall", "length_m": 781.8100535406769, "travel_time_s": null, "name": "Road 1", "highway": "residential", "maxspeed": "30 mph", "oneway": "no"}}, {"type": "Feature", "geometry": {"type": "LineString", "coordinates": [[-77.3, 38.808], [-77.3, 38.81600000000001]]}, "properties": {"edge_id": 16, "edge_ids": [16, 17], "has_speed": false, "speed": null, "speed_unit": "mph", "period": "overall", "length_m": 888.17607613949, "travel_time_s": null, "name": "Road 1", "highway": "residential", "maxspeed": "30 mph", "oneway": "no"}}, {"type": "Feature", "geometry": {"type": "LineString", "coordinates": [[-77.291, 38.808], [-77.282, 38.80800000000001]]}, "properties": {"edge_id": 18, "edge_ids": [18, 19], "has_speed": false, "speed": null, "speed_unit": "mph", "period": "overall", "length_m": 781.8070598530218, "travel_time_s": null, "name": "Road 1", "highway": "residential", "maxspeed": "30 mph", "oneway": "no"}}, {"type": "Feature", "geometry": {"type": "LineString", "coordinates": [[-77.291, 38.808], [-77.291, 38.815999999999995]]}, "properties": {"edge_id": 20, "edge_ids": [20, 21], "has_speed": false, "speed": null, "speed_unit": "mph", "period": "overall", "length_m": 888.1726688636126, "travel_time_s": null, "name": "Road 1", "highway": "residential", "maxspeed": "30 mph", "oneway": "no"}}, {"type": "Feature", "geometry": {"type": "LineString", "coordinates": [[-77.282, 38.80800000000001], [-77.273, 38.80800000000001]]}, "properties": {"edge_id": 22, "edge_ids": [22, 23], "has_speed": false, "speed": null, "speed_unit": "mph", "period": "overall", "length_m": 781.8040779352526, "travel_time_s": null, "name": "Road 1", "highway": "residential", "maxspeed": "30 mph", "oneway": "no"}}, {"type": "Feature", "geometry": {"type": "LineString", "coordinates": [[-77.282, 38.80800000000001], [-77.282, 38.816]]}, "properties": {"edge_id": 24, "edge_ids": [24, 25], "has_speed": false, "speed": null, "speed_unit": "mph", "period": "overall", "length_m": 888.1692749576118, "travel_time_s": null, "name": "Road 1", "highway": "residential", "maxspeed": "30 mph", "oneway": "no"}}, {"type": "Feature", "geometry": {"type": "LineString", "coordinates": [[-77.273, 38.80800000000001], [-77.273, 38.816]]}, "properties": {"edge_id": 26, "edge_ids": [26, 27], "has_speed": false, "speed": null, "speed_unit": "mph", "period": "overall", "length_m": 888.165894419173, "travel_time_s": null, "name": "Road 1", "highway": "residential", "maxspeed": "30 mph", "oneway": "no"}}, {"type": "Feature", "geometry": {"type": "LineString", "coordinates": [[-77.3, 38.81599999999999], [-77.291, 38.81599999999999]]}, "properties": {"edge_id": 28, "edge_ids": [28, 29], "has_speed": false, "speed": null, "speed_unit": "mph", "period": "overall", "length_m": 781.7225243943525, "travel_time_s": null, "name": "Road 2", "highway": "residential", "maxspeed": "30 mph", "oneway": "no"}}, {"type": "Feature", "geometry": {"type": "LineString", "coordinates": [[-77.291, 38.81599999999999], [-77.282, 38.81599999999999]]}, "properties": {"edge_id": 30, "edge_ids": [30, 31], "has_speed": false, "speed": null, "speed_unit": "mph", "period": "overall", "length_m": 781.7195317178373, "travel_time_s": null, "name": "Road 2", "highway": "residential", "maxspeed": "30 mph", "oneway": "no"}}, {"type": "Feature", "geometry": {"type": "LineString", "coordinates": [[-77.282, 38.81599999999999], [-77.273, 38.816]]}, "properties": {"edge_id": 32, "edge_ids": [32, 33], "has_speed": false, "speed": null, "speed_unit": "mph", "period": "overall", "length_m": 781.7165508068857, "travel_time_s": null, "name": "Road 2", "highway": "residential", "maxspeed": "30 mph", "oneway": "no"}}], "properties": {"n_edges_observed": 0, "n_edges_total": 17, "speed_unit": "mph", "period": "overall"}}